[{"OBJECT_NAME":"GSAT0212 (GALILEO 16)","OBJECT_ID":"2016-069B","EPOCH":"2026-04-04T06:37:17.302944","MEAN_MOTION":1.70474499,"ECCENTRICITY":0.00043762,"INCLINATION":55.4482,"RA_OF_ASC_NODE":103.1246,"ARG_OF_PERICENTER":336.7977,"MEAN_ANOMALY":23.2102,"EPHEMERIS_TYPE":0,"CLASSIFICATION_TYPE":"U","NORAD_CAT_ID":41860,"ELEMENT_SET_NO":999,"REV_AT_EPOCH":5839,"BSTAR":0,"MEAN_MOTION_DOT":2.9e-7,"MEAN_MOTION_DDOT":0},{"OBJECT_NAME":"GSAT0213 (GALILEO 17)","OBJECT_ID":"2016-069C","EPOCH":"2026-03-29T04:34:53.766048","MEAN_MOTION":1.70475393,"ECCENTRICITY":0.00056724,"INCLINATION":55.4467,"RA_OF_ASC_NODE":103.3008,"ARG_OF_PERICENTER":296.7743,"MEAN_ANOMALY":63.2211,"EPHEMERIS_TYPE":0,"CLASSIFICATION_TYPE":"U","NORAD_CAT_ID":41861,"ELEMENT_SET_NO":999,"REV_AT_EPOCH":5815,"BSTAR":0,"MEAN_MOTION_DOT":4.2e-7,"MEAN_MOTION_DDOT":0},{"OBJECT_NAME":"GSAT0214 (GALILEO 18)","OBJECT_ID":"2016-069D","EPOCH":"2026-04-03T14:47:20.680512","MEAN_MOTION":1.70474615,"ECCENTRICITY":0.00048192,"INCLINATION":55.4486,"RA_OF_ASC_NODE":103.1435,"ARG_OF_PERICENTER":302.4917,"MEAN_ANOMALY":57.4928,"EPHEMERIS_TYPE":0,"CLASSIFICATION_TYPE":"U","NORAD_CAT_ID":41862,"ELEMENT_SET_NO":999,"REV_AT_EPOCH":5837,"BSTAR":0,"MEAN_MOTION_DOT":2.9e-7,"MEAN_MOTION_DDOT":0},{"OBJECT_NAME":"SES-15 (WAAS/PRN 133)","OBJECT_ID":"2017-026A","EPOCH":"2026-04-05T15:33:18.400896","MEAN_MOTION":1.00271138,"ECCENTRICITY":7.65e-5,"INCLINATION":0.0303,"RA_OF_ASC_NODE":321.5526,"ARG_OF_PERICENTER":62.8767,"MEAN_ANOMALY":273.6753,"EPHEMERIS_TYPE":0,"CLASSIFICATION_TYPE":"U","NORAD_CAT_ID":42709,"ELEMENT_SET_NO":999,"REV_AT_EPOCH":670,"BSTAR":0,"MEAN_MOTION_DOT":6.1e-7,"MEAN_MOTION_DDOT":0},{"OBJECT_NAME":"QZS-2 (QZSS/PRN 194)","OBJECT_ID":"2017-028A","EPOCH":"2026-04-05T06:31:36.480000","MEAN_MOTION":1.00253447,"ECCENTRICITY":0.0742095,"INCLINATION":39.5436,"RA_OF_ASC_NODE":244.2157,"ARG_OF_PERICENTER":270.6147,"MEAN_ANOMALY":276.4746,"EPHEMERIS_TYPE":0,"CLASSIFICATION_TYPE":"U","NORAD_CAT_ID":42738,"ELEMENT_SET_NO":999,"REV_AT_EPOCH":689,"BSTAR":0,"MEAN_MOTION_DOT":-2.03e-6,"MEAN_MOTION_DDOT":0},{"OBJECT_NAME":"QZS-3 (QZSS/PRN 199)","OBJECT_ID":"2017-048A","EPOCH":"2026-04-05T20:40:32.742048","MEAN_MOTION":1.00270886,"ECCENTRICITY":0.0002135,"INCLINATION":0.0653,"RA_OF_ASC_NODE":143.0036,"ARG_OF_PERICENTER":237.5537,"MEAN_ANOMALY":250.7709,"EPHEMERIS_TYPE":0,"CLASSIFICATION_TYPE":"U","NORAD_CAT_ID":42917,"ELEMENT_SET_NO":999,"REV_AT_EPOCH":3153,"BSTAR":0,"MEAN_MOTION_DOT":-3.46e-6,"MEAN_MOTION_DDOT":0},{"OBJECT_NAME":"COSMOS 2522 (752)","OBJECT_ID":"2017-055A","EPOCH":"2026-03-28T21:06:38.934720","MEAN_MOTION":2.13101664,"ECCENTRICITY":0.00080509,"INCLINATION":64.078,"RA_OF_ASC_NODE":194.6153,"ARG_OF_PERICENTER":231.2616,"MEAN_ANOMALY":128.6626,"EPHEMERIS_TYPE":0,"CLASSIFICATION_TYPE":"U","NORAD_CAT_ID":42939,"ELEMENT_SET_NO":999,"REV_AT_EPOCH":6626,"BSTAR":0,"MEAN_MOTION_DOT":-3.6e-7,"MEAN_MOTION_DDOT":0},{"OBJECT_NAME":"QZS-4 (QZSS/PRN 195)","OBJECT_ID":"2017-062A","EPOCH":"2026-04-05T13:22:13.877184","MEAN_MOTION":1.00272593,"ECCENTRICITY":0.0747309,"INCLINATION":40.1522,"RA_OF_ASC_NODE":344.4118,"ARG_OF_PERICENTER":270.5045,"MEAN_ANOMALY":280.0496,"EPHEMERIS_TYPE":0,"CLASSIFICATION_TYPE":"U","NORAD_CAT_ID":42965,"ELEMENT_SET_NO":999,"REV_AT_EPOCH":3107,"BSTAR":0,"MEAN_MOTION_DOT":-3.28e-6,"MEAN_MOTION_DDOT":0},{"OBJECT_NAME":"BEIDOU-3 M1 (C19)","OBJECT_ID":"2017-069A","EPOCH":"2026-04-05T15:27:18.861120","MEAN_MOTION":1.86231333,"ECCENTRICITY":0.0012491,"INCLINATION":56.6311,"RA_OF_ASC_NODE":65.472,"ARG_OF_PERICENTER":313.9589,"MEAN_ANOMALY":45.9116,"EPHEMERIS_TYPE":0,"CLASSIFICATION_TYPE":"U","NORAD_CAT_ID":43001,"ELEMENT_SET_NO":999,"REV_AT_EPOCH":5725,"BSTAR":0,"MEAN_MOTION_DOT":-3.4e-7,"MEAN_MOTION_DDOT":0},{"OBJECT_NAME":"BEIDOU-3 M2 (C20)","OBJECT_ID":"2017-069B","EPOCH":"2026-04-05T13:58:51.254688","MEAN_MOTION":1.86230776,"ECCENTRICITY":0.001014,"INCLINATION":56.6304,"RA_OF_ASC_NODE":65.5098,"ARG_OF_PERICENTER":334.4561,"MEAN_ANOMALY":25.4672,"EPHEMERIS_TYPE":0,"CLASSIFICATION_TYPE":"U","NORAD_CAT_ID":43002,"ELEMENT_SET_NO":999,"REV_AT_EPOCH":5724,"BSTAR":0,"MEAN_MOTION_DOT":-3.4e-7,"MEAN_MOTION_DDOT":0},{"OBJECT_NAME":"GSAT0215 (GALILEO 19)","OBJECT_ID":"2017-079A","EPOCH":"2026-04-04T02:33:00.667872","MEAN_MOTION":1.70474759,"ECCENTRICITY":7.514e-5,"INCLINATION":55.098,"RA_OF_ASC_NODE":223.5434,"ARG_OF_PERICENTER":277.3476,"MEAN_ANOMALY":82.5997,"EPHEMERIS_TYPE":0,"CLASSIFICATION_TYPE":"U","NORAD_CAT_ID":43055,"ELEMENT_SET_NO":999,"REV_AT_EPOCH":5172,"BSTAR":0,"MEAN_MOTION_DOT":-8.0e-8,"MEAN_MOTION_DDOT":0},{"OBJECT_NAME":"GSAT0216 (GALILEO 20)","OBJECT_ID":"2017-079B","EPOCH":"2026-04-04T23:37:01.564896","MEAN_MOTION":1.70474933,"ECCENTRICITY":0.0002155,"INCLINATION":55.097,"RA_OF_ASC_NODE":223.5193,"ARG_OF_PERICENTER":296.0805,"MEAN_ANOMALY":63.8594,"EPHEMERIS_TYPE":0,"CLASSIFICATION_TYPE":"U","NORAD_CAT_ID":43056,"ELEMENT_SET_NO":999,"REV_AT_EPOCH":5175,"BSTAR":0,"MEAN_MOTION_DOT":-4.0e-8,"MEAN_MOTION_DDOT":0},{"OBJECT_NAME":"GSAT0217 (GALILEO 21)","OBJECT_ID":"2017-079C","EPOCH":"2026-04-04T00:45:33.990624","MEAN_MOTION":1.70474766,"ECCENTRICITY":0.00018882,"INCLINATION":55.0959,"RA_OF_ASC_NODE":223.5432,"ARG_OF_PERICENTER":328.5118,"MEAN_ANOMALY":31.4322,"EPHEMERIS_TYPE":0,"CLASSIFICATION_TYPE":"U","NORAD_CAT_ID":43057,"ELEMENT_SET_NO":999,"REV_AT_EPOCH":5172,"BSTAR":0,"MEAN_MOTION_DOT":-9.0e-8,"MEAN_MOTION_DDOT":0},{"OBJECT_NAME":"GSAT0218 (GALILEO 22)","OBJECT_ID":"2017-079D","EPOCH":"2026-04-04T06:02:26.671776","MEAN_MOTION":1.70474764,"ECCENTRICITY":0.00025455,"INCLINATION":55.097,"RA_OF_ASC_NODE":223.5349,"ARG_OF_PERICENTER":284.371,"MEAN_ANOMALY":75.5576,"EPHEMERIS_TYPE":0,"CLASSIFICATION_TYPE":"U","NORAD_CAT_ID":43058,"ELEMENT_SET_NO":999,"REV_AT_EPOCH":5175,"BSTAR":0,"MEAN_MOTION_DOT":-8.0e-8,"MEAN_MOTION_DDOT":0},{"OBJECT_NAME":"BEIDOU-3 M7 (C27)","OBJECT_ID":"2018-003A","EPOCH":"2026-04-05T07:46:39.838080","MEAN_MOTION":1.86232513,"ECCENTRICITY":0.0005149,"INCLINATION":54.3931,"RA_OF_ASC_NODE":304.8551,"ARG_OF_PERICENTER":76.5286,"MEAN_ANOMALY":283.5497,"EPHEMERIS_TYPE":0,"CLASSIFICATION_TYPE":"U","NORAD_CAT_ID":43107,"ELEMENT_SET_NO":999,"REV_AT_EPOCH":5599,"BSTAR":0,"MEAN_MOTION_DOT":-5.9e-7,"MEAN_MOTION_DDOT":0},{"OBJECT_NAME":"BEIDOU-3 M8 (C28)","OBJECT_ID":"2018-003B","EPOCH":"2026-04-02T14:02:36.150432","MEAN_MOTION":1.86230868,"ECCENTRICITY":0.00024857,"INCLINATION":54.3877,"RA_OF_ASC_NODE":304.933,"ARG_OF_PERICENTER":292.781,"MEAN_ANOMALY":67.2205,"EPHEMERIS_TYPE":0,"CLASSIFICATION_TYPE":"U","NORAD_CAT_ID":43108,"ELEMENT_SET_NO":999,"REV_AT_EPOCH":5595,"BSTAR":0,"MEAN_MOTION_DOT":-6.5e-7,"MEAN_MOTION_DDOT":0},{"OBJECT_NAME":"BEIDOU-3 M4 (C22)","OBJECT_ID":"2018-018A","EPOCH":"2026-04-04T15:19:11.555616","MEAN_MOTION":1.86231252,"ECCENTRICITY":0.00074932,"INCLINATION":56.5893,"RA_OF_ASC_NODE":65.5716,"ARG_OF_PERICENTER":355.4871,"MEAN_ANOMALY":4.4783,"EPHEMERIS_TYPE":0,"CLASSIFICATION_TYPE":"U","NORAD_CAT_ID":43207,"ELEMENT_SET_NO":999,"REV_AT_EPOCH":5537,"BSTAR":0,"MEAN_MOTION_DOT":-4.0e-7,"MEAN_MOTION_DDOT":0}]
