GSAT0212 (GALILEO 16)   
1 41860U 16069B   26094.27589471  .00000029  00000+0  00000+0 0  9994
2 41860  55.4482 103.1246 0004376 336.7977  23.2102  1.70474499 58398
GSAT0213 (GALILEO 17)   
1 41861U 16069C   26088.19090007  .00000042  00000+0  00000+0 0  9996
2 41861  55.4467 103.3008 0005672 296.7743  63.2211  1.70475393 58159
GSAT0214 (GALILEO 18)   
1 41862U 16069D   26093.61621158  .00000029  00000+0  00000+0 0  9992
2 41862  55.4486 103.1435 0004819 302.4917  57.4928  1.70474615 58373
SES-15                  
1 42709U 17026A   26095.64812964  .00000061  00000+0  00000+0 0  9995
2 42709   0.0303 321.5526 0000765  62.8767 273.6753  1.00271138  6707
QZS-2 (MICHIBIKI-2)     
1 42738U 17028A   26095.27195000 -.00000203  00000+0  00000+0 0  9992
2 42738  39.5436 244.2157 0742095 270.6147 276.4746  1.00253447  6890
QZS-3 (MICHIBIKI-3)     
1 42917U 17048A   26095.86149007 -.00000346  00000+0  00000+0 0  9992
2 42917   0.0653 143.0036 0002135 237.5537 250.7709  1.00270886 31533
COSMOS 2522 [GLONASS-M] 
1 42939U 17055A   26087.87961730 -.00000036  00000+0  00000+0 0  9997
2 42939  64.0780 194.6153 0008050 231.2616 128.6626  2.13101664 66262
QZS-4 (MICHIBIKI-4)     
1 42965U 17062A   26095.55710506 -.00000328  00000+0  00000+0 0  9995
2 42965  40.1522 344.4118 0747309 270.5045 280.0496  1.00272593 31079
BEIDOU-3 M1             
1 43001U 17069A   26095.64396830 -.00000034  00000+0  00000+0 0  9998
2 43001  56.6311  65.4720 0012491 313.9589  45.9116  1.86231333 57256
BEIDOU-3 M2             
1 43002U 17069B   26095.58253767 -.00000034  00000+0  00000+0 0  9993
2 43002  56.6304  65.5098 0010140 334.4561  25.4672  1.86230776 57244
GSAT0215 (GALILEO 19)   
1 43055U 17079A   26094.10625773 -.00000008  00000+0  00000+0 0  9990
2 43055  55.0980 223.5434 0000751 277.3476  82.5997  1.70474759 51727
GSAT0216 (GALILEO 20)   
1 43056U 17079B   26094.98404589 -.00000004  00000+0  00000+0 0  9993
2 43056  55.0970 223.5193 0002155 296.0805  63.8594  1.70474933 51755
GSAT0217 (GALILEO 21)   
1 43057U 17079C   26094.03164341 -.00000009  00000+0  00000+0 0  9994
2 43057  55.0959 223.5432 0001888 328.5118  31.4322  1.70474766 51720
GSAT0218 (GALILEO 22)   
1 43058U 17079D   26094.25169759 -.00000008  00000+0  00000+0 0  9996
2 43058  55.0970 223.5349 0002545 284.3710  75.5576  1.70474764 51750
BEIDOU-3 M7             
1 43107U 18003A   26095.32407220 -.00000059  00000+0  00000+0 0  9992
2 43107  54.3931 304.8551 0005149  76.5286 283.5497  1.86232513 55998
BEIDOU-3 M8             
1 43108U 18003B   26092.58514063 -.00000065  00000+0  00000+0 0  9999
2 43108  54.3877 304.9330 0002485 292.7810  67.2205  1.86230868 55950
BEIDOU-3 M4             
1 43207U 18018A   26094.63832819 -.00000040  00000+0  00000+0 0  9998
2 43207  56.5893  65.5716 0007493 355.4871   4.4783  1.86231252 55376
